start=new Date('2021-11-13T00:00:00.000Z').valueOf();
sats=[{"ECCENTRICITY":"0.00017010","EPHEMERIS_TYPE":"0","EPOCH":"2021-11-12T10:17:49.817184","PERIAPSIS":"546.021","RCS_SIZE":"LARGE","MEAN_MOTION_DDOT":"0.0000000000000","SEMIMAJOR_AXIS":"6925.334","INCLINATION":"53.0549","ELEMENT_SET_NO":"999","OBJECT_TYPE":"PAYLOAD","SITE":"AFETR","LAUNCH_DATE":"2020-04-22","GP_ID":"189592030","PERIOD":"95.592","BSTAR":"-0.00001792700000","OBJECT_NAME":"STARLINK-1364","CENTER_NAME":"EARTH","TLE_LINE2":"2 45589  53.0549 321.7104 0001701  61.8410 298.2751 15.06404913 87626","MEAN_MOTION":"15.06404913","TIME_SYSTEM":"UTC","REV_AT_EPOCH":"8762","MEAN_MOTION_DOT":"-0.00000549","COUNTRY_CODE":"US","MEAN_ELEMENT_THEORY":"SGP4","RA_OF_ASC_NODE":"321.7104","REF_FRAME":"TEME","APOAPSIS":"548.376","ARG_OF_PERICENTER":"61.8410","OBJECT_ID":"2020-025BL","TLE_LINE1":"1 45589U 20025BL  21316.42904881 -.00000549  00000-0 -17927-4 0  9999","FILE":"3213417","MEAN_ANOMALY":"298.2751","NORAD_CAT_ID":"45589","CLASSIFICATION_TYPE":"U","DECAY_DATE":null},{"PERIAPSIS":"546.151","RCS_SIZE":"LARGE","MEAN_MOTION_DDOT":"0.0000000000000","ECCENTRICITY":"0.00014890","EPHEMERIS_TYPE":"0","EPOCH":"2021-11-12T13:51:28.476288","OBJECT_TYPE":"PAYLOAD","ELEMENT_SET_NO":"999","SEMIMAJOR_AXIS":"6925.317","INCLINATION":"53.0550","BSTAR":"0.00012261000000","SITE":"AFETR","PERIOD":"95.591","GP_ID":"189643137","LAUNCH_DATE":"2020-04-22","OBJECT_NAME":"STARLINK-1365","REV_AT_EPOCH":"8724","MEAN_MOTION_DOT":"0.00001546","COUNTRY_CODE":"US","CENTER_NAME":"EARTH","MEAN_MOTION":"15.06410165","TLE_LINE2":"2 45590  53.0550 351.0454 0001489  73.5649 286.5504 15.06410165 87241","TIME_SYSTEM":"UTC","RA_OF_ASC_NODE":"351.0454","REF_FRAME":"TEME","APOAPSIS":"548.214","MEAN_ELEMENT_THEORY":"SGP4","FILE":"3213639","NORAD_CAT_ID":"45590","MEAN_ANOMALY":"286.5504","OBJECT_ID":"2020-025BM","ARG_OF_PERICENTER":"73.5649","TLE_LINE1":"1 45590U 20025BM  21316.57741292  .00001546  00000-0  12261-3 0  9993","CLASSIFICATION_TYPE":"U","DECAY_DATE":null},{"CLASSIFICATION_TYPE":"U","DECAY_DATE":null,"TLE_LINE1":"1 45658U 20035B   21316.68430589 -.00000209  00000-0  48843-5 0  9998","OBJECT_ID":"2020-035B","ARG_OF_PERICENTER":"63.0029","FILE":"3213639","MEAN_ANOMALY":"297.1117","NORAD_CAT_ID":"45658","MEAN_ELEMENT_THEORY":"SGP4","RA_OF_ASC_NODE":"310.5636","REF_FRAME":"TEME","APOAPSIS":"548.303","TLE_LINE2":"2 45658  53.0545 310.5636 0001543  63.0029 297.1117 15.06393240 80895","MEAN_MOTION":"15.06393240","CENTER_NAME":"EARTH","TIME_SYSTEM":"UTC","REV_AT_EPOCH":"8089","COUNTRY_CODE":"US","MEAN_MOTION_DOT":"-0.00000209","OBJECT_NAME":"STARLINK-1441","SITE":"AFETR","PERIOD":"95.593","GP_ID":"189643143","LAUNCH_DATE":"2020-06-04","BSTAR":"0.00000488430000","INCLINATION":"53.0545","SEMIMAJOR_AXIS":"6925.369","OBJECT_TYPE":"PAYLOAD","ELEMENT_SET_NO":"999","ECCENTRICITY":"0.00015430","EPOCH":"2021-11-12T16:25:24.028896","EPHEMERIS_TYPE":"0","PERIAPSIS":"546.166","MEAN_MOTION_DDOT":"0.0000000000000","RCS_SIZE":"LARGE"},{"DECAY_DATE":null,"CLASSIFICATION_TYPE":"U","TLE_LINE1":"1 45659U 20035C   21316.68853968  .00000170  00000-0  29796-4 0  9990","ARG_OF_PERICENTER":"67.7696","OBJECT_ID":"2020-035C","NORAD_CAT_ID":"45659","MEAN_ANOMALY":"292.3449","FILE":"3213639","MEAN_ELEMENT_THEORY":"SGP4","APOAPSIS":"545.753","REF_FRAME":"TEME","RA_OF_ASC_NODE":"310.5112","TIME_SYSTEM":"UTC","TLE_LINE2":"2 45659  53.0554 310.5112 0001468  67.7696 292.3449 15.07208450 80885","MEAN_MOTION":"15.07208450","CENTER_NAME":"EARTH","COUNTRY_CODE":"US","MEAN_MOTION_DOT":"0.00000170","REV_AT_EPOCH":"8088","OBJECT_NAME":"STARLINK-1442","LAUNCH_DATE":"2020-06-04","GP_ID":"189643892","PERIOD":"95.541","SITE":"AFETR","BSTAR":"0.00002979600000","SEMIMAJOR_AXIS":"6922.872","INCLINATION":"53.0554","ELEMENT_SET_NO":"999","OBJECT_TYPE":"PAYLOAD","EPOCH":"2021-11-12T16:31:29.828352","EPHEMERIS_TYPE":"0","ECCENTRICITY":"0.00014680","MEAN_MOTION_DDOT":"0.0000000000000","RCS_SIZE":"LARGE","PERIAPSIS":"543.721"},{"TLE_LINE1":"1 45660U 20035D   21316.69536290  .00000769  00000-0  70512-4 0  9995","OBJECT_ID":"2020-035D","ARG_OF_PERICENTER":"78.9439","NORAD_CAT_ID":"45660","MEAN_ANOMALY":"281.1709","FILE":"3213639","DECAY_DATE":null,"CLASSIFICATION_TYPE":"U","TIME_SYSTEM":"UTC","MEAN_MOTION":"15.06403229","TLE_LINE2":"2 45660  53.0536 310.5240 0001416  78.9439 281.1709 15.06403229 80897","CENTER_NAME":"EARTH","COUNTRY_CODE":"US","MEAN_MOTION_DOT":"0.00000769","REV_AT_EPOCH":"8089","MEAN_ELEMENT_THEORY":"SGP4","APOAPSIS":"548.184","RA_OF_ASC_NODE":"310.5240","REF_FRAME":"TEME","GP_ID":"189644131","LAUNCH_DATE":"2020-06-04","PERIOD":"95.592","SITE":"AFETR","BSTAR":"0.00007051200000","OBJECT_NAME":"STARLINK-1443","EPOCH":"2021-11-12T16:41:19.354560","EPHEMERIS_TYPE":"0","ECCENTRICITY":"0.00014160","MEAN_MOTION_DDOT":"0.0000000000000","RCS_SIZE":"LARGE","PERIAPSIS":"546.223","SEMIMAJOR_AXIS":"6925.339","INCLINATION":"53.0536","OBJECT_TYPE":"PAYLOAD","ELEMENT_SET_NO":"999"},{"MEAN_ANOMALY":"297.6218","NORAD_CAT_ID":"45661","FILE":"3213417","OBJECT_ID":"2020-035E","ARG_OF_PERICENTER":"62.4937","TLE_LINE1":"1 45661U 20035E   21316.51475124  .00000154  00000-0  29243-4 0  9998","DECAY_DATE":null,"CLASSIFICATION_TYPE":"U","MEAN_MOTION_DOT":"0.00000154","COUNTRY_CODE":"US","REV_AT_EPOCH":"8086","TIME_SYSTEM":"UTC","CENTER_NAME":"EARTH","MEAN_MOTION":"15.06403435","TLE_LINE2":"2 45661  53.0533 311.3311 0001638  62.4937 297.6218 15.06403435 80863","APOAPSIS":"548.337","RA_OF_ASC_NODE":"311.3311","REF_FRAME":"TEME","MEAN_ELEMENT_THEORY":"SGP4","BSTAR":"0.00002924300000","PERIOD":"95.592","GP_ID":"189591537","LAUNCH_DATE":"2020-06-04","SITE":"AFETR","OBJECT_NAME":"STARLINK-1444","RCS_SIZE":"LARGE","MEAN_MOTION_DDOT":"0.0000000000000","PERIAPSIS":"546.069","EPHEMERIS_TYPE":"0","EPOCH":"2021-11-12T12:21:14.507136","ECCENTRICITY":"0.00016380","ELEMENT_SET_NO":"999","OBJECT_TYPE":"PAYLOAD","SEMIMAJOR_AXIS":"6925.338","INCLINATION":"53.0533"},{"CLASSIFICATION_TYPE":"U","DECAY_DATE":null,"FILE":"3213639","NORAD_CAT_ID":"45662","MEAN_ANOMALY":"288.3352","ARG_OF_PERICENTER":"71.7776","OBJECT_ID":"2020-035F","TLE_LINE1":"1 45662U 20035F   21316.72853713  .00000679  00000-0  64469-4 0  9997","REF_FRAME":"TEME","RA_OF_ASC_NODE":"310.3702","APOAPSIS":"548.088","MEAN_ELEMENT_THEORY":"SGP4","REV_AT_EPOCH":"8089","MEAN_MOTION_DOT":"0.00000679","COUNTRY_CODE":"US","CENTER_NAME":"EARTH","MEAN_MOTION":"15.06404146","TLE_LINE2":"2 45662  53.0530 310.3702 0001281  71.7776 288.3352 15.06404146 80891","TIME_SYSTEM":"UTC","OBJECT_NAME":"STARLINK-1445","BSTAR":"0.00006446900000","SITE":"AFETR","LAUNCH_DATE":"2020-06-04","GP_ID":"189643644","PERIOD":"95.592","ELEMENT_SET_NO":"999","OBJECT_TYPE":"PAYLOAD","SEMIMAJOR_AXIS":"6925.336","INCLINATION":"53.0530","PERIAPSIS":"546.314","RCS_SIZE":"LARGE","MEAN_MOTION_DDOT":"0.0000000000000","ECCENTRICITY":"0.00012810","EPHEMERIS_TYPE":"0","EPOCH":"2021-11-12T17:29:05.608032"},{"FILE":"3213639","NORAD_CAT_ID":"45663","MEAN_ANOMALY":"299.9051","TLE_LINE1":"1 45663U 20035G   21316.79857188  .00000167  00000-0  30131-4 0  9996","ARG_OF_PERICENTER":"60.2112","OBJECT_ID":"2020-035G","CLASSIFICATION_TYPE":"U","DECAY_DATE":null,"REV_AT_EPOCH":"8090","COUNTRY_CODE":"US","MEAN_MOTION_DOT":"0.00000167","TLE_LINE2":"2 45663  53.0541 310.0506 0001758  60.2112 299.9051 15.06397686 80905","MEAN_MOTION":"15.06397686","CENTER_NAME":"EARTH","TIME_SYSTEM":"UTC","REF_FRAME":"TEME","RA_OF_ASC_NODE":"310.0506","APOAPSIS":"548.438","MEAN_ELEMENT_THEORY":"SGP4","BSTAR":"0.00003013100000","SITE":"AFETR","LAUNCH_DATE":"2020-06-04","GP_ID":"189644393","PERIOD":"95.592","OBJECT_NAME":"STARLINK-1446","PERIAPSIS":"546.003","MEAN_MOTION_DDOT":"0.0000000000000","RCS_SIZE":"LARGE","ECCENTRICITY":"0.00017580","EPOCH":"2021-11-12T19:09:56.610432","EPHEMERIS_TYPE":"0","ELEMENT_SET_NO":"999","OBJECT_TYPE":"PAYLOAD","SEMIMAJOR_AXIS":"6925.356","INCLINATION":"53.0541"},{"OBJECT_NAME":"STARLINK-1448","BSTAR":"0.00001337500000","GP_ID":"189644632","PERIOD":"95.592","LAUNCH_DATE":"2020-06-04","SITE":"AFETR","ELEMENT_SET_NO":"999","OBJECT_TYPE":"PAYLOAD","SEMIMAJOR_AXIS":"6925.359","INCLINATION":"53.0541","RCS_SIZE":"LARGE","MEAN_MOTION_DDOT":"0.0000000000000","PERIAPSIS":"546.158","EPHEMERIS_TYPE":"0","EPOCH":"2021-11-12T16:46:37.828416","ECCENTRICITY":"0.00015380","DECAY_DATE":null,"CLASSIFICATION_TYPE":"U","NORAD_CAT_ID":"45665","MEAN_ANOMALY":"296.9429","FILE":"3213639","ARG_OF_PERICENTER":"63.1717","OBJECT_ID":"2020-035J","TLE_LINE1":"1 45665U 20035J   21316.69904894 -.00000082  00000-0  13375-4 0  9992","APOAPSIS":"548.289","REF_FRAME":"TEME","RA_OF_ASC_NODE":"310.4944","MEAN_ELEMENT_THEORY":"SGP4","MEAN_MOTION_DOT":"-0.00000082","COUNTRY_CODE":"US","REV_AT_EPOCH":"8088","TIME_SYSTEM":"UTC","CENTER_NAME":"EARTH","MEAN_MOTION":"15.06396720","TLE_LINE2":"2 45665  53.0541 310.4944 0001538  63.1717 296.9429 15.06396720 80887"},{"BSTAR":"-0.00002229200000","SITE":"AFETR","LAUNCH_DATE":"2020-06-04","GP_ID":"189644877","PERIOD":"95.593","OBJECT_NAME":"STARLINK-1449","PERIAPSIS":"546.217","RCS_SIZE":"LARGE","MEAN_MOTION_DDOT":"0.0000000000000","ECCENTRICITY":"0.00014640","EPHEMERIS_TYPE":"0","EPOCH":"2021-11-12T16:55:53.783040","ELEMENT_SET_NO":"999","OBJECT_TYPE":"PAYLOAD","INCLINATION":"53.0551","SEMIMAJOR_AXIS":"6925.366","FILE":"3213639","MEAN_ANOMALY":"298.2927","NORAD_CAT_ID":"45666","ARG_OF_PERICENTER":"61.8209","OBJECT_ID":"2020-035K","TLE_LINE1":"1 45666U 20035K   21316.70548360 -.00000613  00000-0 -22292-4 0  9996","CLASSIFICATION_TYPE":"U","DECAY_DATE":null,"REV_AT_EPOCH":"8088","MEAN_MOTION_DOT":"-0.00000613","COUNTRY_CODE":"US","CENTER_NAME":"EARTH","TLE_LINE2":"2 45666  53.0551 310.4687 0001464  61.8209 298.2927 15.06394246 80881","MEAN_MOTION":"15.06394246","TIME_SYSTEM":"UTC","REF_FRAME":"TEME","RA_OF_ASC_NODE":"310.4687","APOAPSIS":"548.245","MEAN_ELEMENT_THEORY":"SGP4"}];
